#aV2021 12  3  0  0  0.00000000     288 DD+AD WGS84 FIT  NGA
## 2186 432000.00000000   300.00000000 59551 0.0000000000000
+   32     1  2  3  4  5  6  7  8  9 10 11 12 13 14 15 16 17
+         18 19 20 21 22 23 24 25 26 27 28 29 30 31 32  0  0
+          0  0  0  0  0  0  0  0  0  0  0  0  0  0  0  0  0
+          0  0  0  0  0  0  0  0  0  0  0  0  0  0  0  0  0
+          0  0  0  0  0  0  0  0  0  0  0  0  0  0  0  0  0
++         2  2  2  2  2  2  2  2  2  2  2  2  2  2  2  2  2
++         2  2  2  2  2  2  2  2  2  2  2  2  2  2  2  0  0
++         0  0  0  0  0  0  0  0  0  0  0  0  0  0  0  0  0
++         0  0  0  0  0  0  0  0  0  0  0  0  0  0  0  0  0
++         0  0  0  0  0  0  0  0  0  0  0  0  0  0  0  0  0
%c cc cc ccc ccc cccc cccc cccc cccc ccccc ccccc ccccc ccccc
%c cc cc ccc ccc cccc cccc cccc cccc ccccc ccccc ccccc ccccc
%f  0.0000000  0.000000000  0.00000000000  0.000000000000000
%f  0.0000000  0.000000000  0.00000000000  0.000000000000000
%i    0    0    0    0      0      0      0      0         0
%i    0    0    0    0      0      0      0      0         0
/*      NGA, ST. LOUIS,MO.                                  
/*   EPHEMERIS COMPUTED FROM 2 DAYS OF DATA                 
/*   EPOCHA v7 SMOOTHER                                     
/*   G2139 IERS2010 SATIGS SATAPC                           
*  2021 12  3 14 30  0.00000000
P  1 -13531.445407  19435.610855  11394.792361    493.988750                    
V  1   2249.122324 -14947.980084  27834.131190     -0.102869                    
P  2  14798.982149   1448.572062 -21354.307872   -644.385789                    
V  2  -5475.526395  28159.462836  -1737.389228     -0.013762                    
P  3 -20537.870632  12896.763236 -10817.822525    -30.323448                    
V  3 -13718.117360   1250.554608  27899.719958     -0.112181                    
P  4 -10446.800773  11114.819316 -21740.617139   -200.204833                    
V  4 -18751.430349 -20267.628230  -1425.033894      0.011479                    
P  5  25918.742615  -4812.044165  -4015.678680    -63.154620                    
V  5  -3900.430642   3977.363716 -31070.917474     -0.012804                    
P  6   7535.440923  17688.665003 -18229.439550    133.217155                    
V  6  -7485.543583  22041.528350  18283.209403      0.097078                    
P  7  -4768.525530  25667.272616   3485.884359    286.270577                    
V  7  -4454.535377   2928.586759 -31447.852404      0.048541                    
P  8 -18410.378569    588.003600  19241.210158    -46.641920                    
V  8 -16590.540577 -17841.737563 -14994.160550     -0.015218                    
P  9    916.317240  19214.411829 -18376.002296   -361.043767                    
V  9 -17683.058856 -15130.106219 -16799.261685      0.005546                    
P 10  -8103.574207 -13222.108345  21723.315155   -260.136722                    
V 10  26267.292834  -7100.499479   5221.748517     -0.087794                    
P 11  14446.559798   4734.261068 -21785.840953     15.778036                    
V 11  -8926.149636  26163.792504   -249.504736     -0.026916                    
P 12  22411.334902 -10678.509498  -9502.848914   -135.360380                    
V 12  11951.949091    143.317113  28929.828986     -0.055739                    
P 13  19681.410122   8185.827020  15789.031939    223.879225                    
V 13  10723.546713  17270.428292 -21954.008089      0.057523                    
P 14   7248.124752  13945.550545  21415.039447    -49.057822                    
V 14 -26517.874137   6114.860180   4935.128190     -0.064379                    
P 15  18330.382662  -3214.498757  18662.877259   -101.904346                    
V 15  18130.590677  16637.047897 -14301.987824      0.028239                    
P 16 -26015.393325   -394.028614  -6694.102598   -434.432843                    
V 16   7634.634763  -3212.994114 -30195.164720     -0.061817                    
P 17  11581.493191  22379.989868   8787.642273    542.350771                    
V 17  -8365.680015  -6686.022320  29564.426805      0.051894                    
P 18   4861.752202 -25736.165045   4066.458006    285.732262                    
V 18   3950.648225  -4216.414964 -31472.264155     -0.063042                    
P 19  16884.306859  20620.191356   -698.423335     87.359175                    
V 19  -1293.708480   1738.935830  32022.983079      0.049948                    
P 20  22450.102045   1454.974066 -13926.416523    517.817363                    
V 20 -15285.567570   9561.353355 -23929.021195     -0.001754                    
P 21 -15644.064702  11095.879034  18803.884833    152.755941                    
V 21   2790.106659 -22591.298184  16827.841506      0.010340                    
P 22 -24177.827247  10512.892903  -1894.264446   -450.146846                    
V 22  -3769.926150  -2573.333505  31246.924830      0.090202                    
P 23   5073.422869 -16126.720485  20444.297405     25.953858                    
V 23  25271.760540  -6215.825590 -11249.858137     -0.042484                    
P 24  14411.113555 -16141.158038  14841.799933    272.386305                    
V 24   -945.246604  19780.561305  22424.740095      0.027284                    
P 25  12624.451680 -15846.733353 -17297.247900    250.129898                    
V 25  21321.614702  -3671.203395  19499.804414      0.058249                    
P 26 -18719.780394  -7548.121471 -17479.734014    161.420782                    
V 26  20477.641712  -8291.184657 -18121.028935      0.037102                    
P 27 -21426.035192  -9703.415817  12517.547530   -226.632584                    
V 27  -9964.902878 -12673.487546 -26118.622498     -0.045170                    
P 28  14508.651073  11288.649965  19628.228242    450.557684                    
V 28 -23346.831191   4891.781194  15067.898962     -0.076050                    
P 29   4078.740156 -16402.648258 -20514.179069   -449.017226                    
V 29  17329.578496  19281.419160 -12050.648167     -0.050738                    
P 30   2573.234133  23221.368913  12473.556642   -496.409161                    
V 30  -7530.761780  14314.524838 -25468.901195     -0.030347                    
P 31  -9573.270983 -15424.394579 -19336.776238   -153.226927                    
V 31   8671.674592 -22952.113613  14564.326882     -0.018823                    
P 32 -15796.096131 -20909.083766   5021.280500    -30.047585                    
V 32   6277.314198   2502.733379  30701.893676     -0.051552                    
EOF
